0 AMOS 5I (ASIASAT 2)
1 23723U 95064A   13281.31361417 -.00000214  00000-0  10000-3 0  1165
2 23723 002.4791 070.6396 0006697 185.9935 174.3027 00.99305126 65382
0 AMOS 5I (ASIASAT 2)
1 23723U 95064A   13283.32742855 -.00000190  00000-0  10000-3 0  1171
2 23723 002.4834 070.6236 0006854 186.5441 173.7122 00.99304378 65407
0 AMOS 5I (ASIASAT 2)
1 23723U 95064A   13285.34142244 -.00000162  00000-0  10000-3 0  1181
2 23723 002.4877 070.6056 0006904 186.6651 173.6123 00.99303682 65423
0 AMOS 5I (ASIASAT 2)
1 23723U 95064A   13287.35545455 -.00000127  00000-0  10000-3 0  1197
2 23723 002.4920 070.5850 0006955 186.7785 173.5309 00.99303071 65447
0 AMOS 5I (ASIASAT 2)
1 23723U 95064A   13289.36934768 -.00000087  00000-0  10000-3 0  1206
2 23723 002.4965 070.5678 0007050 186.9727 173.3111 00.99302575 65468
0 AMOS 5I (ASIASAT 2)
1 23723U 95064A   13290.37624471 -.00000066  00000-0  10000-3 0  1214
2 23723 002.4994 070.6336 0007067 185.5260 174.6448 00.99301945 65475
0 AMOS 5I (ASIASAT 2)
1 23723U 95064A   13291.38332526 -.00000045  00000-0  10000-3 0  1221
2 23723 002.5009 070.5529 0007091 186.7949 173.4890 00.99302236 65483
0 AMOS 5I (ASIASAT 2)
1 23723U 95064A   13294.40364619  .00000012  00000-0  10000-3 0  1239
2 23723 002.5074 070.5252 0007179 186.7648 173.2923 00.99302046 65519
